1 25543U 88109K   20126.85435799  .00000055  00000-0  35879-3 0  9991
2 25543   7.2217  37.6185 7177804 118.0122 329.9974  2.29514339185251
1 25544U 98067A   20127.37136911  .00000843  00000-0  23178-4 0  9993
2 25544  51.6447 195.4314 0001025 241.6743 215.3876 15.49351388225537
1 25546U 98068A   20126.82468958 -.00000008 +00000-0 +00000-0 0  9993
2 25546 006.2515 062.1561 0008091 322.9221 039.2060 00.99035776078420
1 25548U 98068C   20126.43385641 -.00000068  00000-0  00000+0 0  9994
2 25548  19.4984 123.6309 6991863 146.5060 289.2700  2.15163450168672
